{"type": "FeatureCollection", "features": [{"type": "Feature", "properties": {"norad_id": 22675, "name": "COSMOS 2251", "group": "cosmos-2251-debris", "lat": 46.735323019268485, "lon": -33.20106267866242, "alt_km": 760.228955180838, "timestamp": "2025-12-16T10:53:45.863402+00:00", "meta": {"OBJECT_NAME": "COSMOS 2251", "OBJECT_ID": "1993-036A", "EPOCH": "2025-12-15T22:56:29.634720", "MEAN_MOTION": 14.33205754, "ECCENTRICITY": 0.0024121, "INCLINATION": 74.0398, "RA_OF_ASC_NODE": 310.007, "ARG_OF_PERICENTER": 31.3703, "MEAN_ANOMALY": 328.8881, "EPHEMERIS_TYPE": 0, "CLASSIFICATION_TYPE": "U", "NORAD_CAT_ID": 22675, "ELEMENT_SET_NO": 999, "REV_AT_EPOCH": 69819, "BSTAR": 4.9706449e-05, "MEAN_MOTION_DOT": 1.11e-06, "MEAN_MOTION_DDOT": 0}, "tle": {"line1": "1 22675U 93036A   25349.95589855  .00000111  00000+0  49706-4 0  9992", "line2": "2 22675  74.0398 310.0070 0024121  31.3703 328.8881 14.33205754698198"}}, "geometry": {"type": "Point", "coordinates": [-33.20106267866242, 46.735323019268485]}}, {"type": "Feature", "properties": {"norad_id": 33757, "name": "COSMOS 2251 DEB", "group": "cosmos-2251-debris", "lat": 71.1444746291171, "lon": 13.77287784988561, "alt_km": 779.7175921280395, "timestamp": "2025-12-16T10:53:45.863426+00:00", "meta": {"OBJECT_NAME": "COSMOS 2251 DEB", "OBJECT_ID": "1993-036E", "EPOCH": "2025-12-15T23:03:13.381056", "MEAN_MOTION": 14.32581851, "ECCENTRICITY": 0.00153762, "INCLINATION": 74.037, "RA_OF_ASC_NODE": 317.7296, "ARG_OF_PERICENTER": 330.4713, "MEAN_ANOMALY": 85.4768, "EPHEMERIS_TYPE": 0, "CLASSIFICATION_TYPE": "U", "NORAD_CAT_ID": 33757, "ELEMENT_SET_NO": 999, "REV_AT_EPOCH": 88042, "BSTAR": 4.3853054e-05, "MEAN_MOTION_DOT": 9.3e-07, "MEAN_MOTION_DDOT": 0}, "tle": {"line1": "1 33757U 93036E   25349.96057154  .00000093  00000+0  43853-4 0  9994", "line2": "2 33757  74.0370 317.7296 0015376 330.4713  85.4768 14.32581851880424"}}, "geometry": {"type": "Point", "coordinates": [13.77287784988561, 71.1444746291171]}}, {"type": "Feature", "properties": {"norad_id": 33758, "name": "COSMOS 2251 DEB", "group": "cosmos-2251-debris", "lat": -71.56332945860952, "lon": 148.8131257731101, "alt_km": 715.0670822950669, "timestamp": "2025-12-16T10:53:45.863440+00:00", "meta": {"OBJECT_NAME": "COSMOS 2251 DEB", "OBJECT_ID": "1993-036F", "EPOCH": "2025-12-15T19:06:05.469696", "MEAN_MOTION": 14.51614073, "ECCENTRICITY": 0.00173142, "INCLINATION": 74.0276, "RA_OF_ASC_NODE": 209.2735, "ARG_OF_PERICENTER": 275.8547, "MEAN_ANOMALY": 165.7222, "EPHEMERIS_TYPE": 0, "CLASSIFICATION_TYPE": "U", "NORAD_CAT_ID": 33758, "ELEMENT_SET_NO": 999, "REV_AT_EPOCH": 88349, "BSTAR": 0.00051373595, "MEAN_MOTION_DOT": 2.035e-05, "MEAN_MOTION_DDOT": 0}, "tle": {"line1": "1 33758U 93036F   25349.79589664  .00002035  00000+0  51374-3 0  9996", "line2": "2 33758  74.0276 209.2735 0017314 275.8547 165.7222 14.51614073883495"}}, "geometry": {"type": "Point", "coordinates": [148.8131257731101, -71.56332945860952]}}, {"type": "Feature", "properties": {"norad_id": 33760, "name": "COSMOS 2251 DEB", "group": "cosmos-2251-debris", "lat": 7.837910722819401, "lon": -83.10099384661602, "alt_km": 760.0856105239291, "timestamp": "2025-12-16T10:53:45.863452+00:00", "meta": {"OBJECT_NAME": "COSMOS 2251 DEB", "OBJECT_ID": "1993-036H", "EPOCH": "2025-12-15T21:46:34.600224", "MEAN_MOTION": 14.35674907, "ECCENTRICITY": 0.00199977, "INCLINATION": 74.0322, "RA_OF_ASC_NODE": 275.643, "ARG_OF_PERICENTER": 13.2014, "MEAN_ANOMALY": 50.8524, "EPHEMERIS_TYPE": 0, "CLASSIFICATION_TYPE": "U", "NORAD_CAT_ID": 33760, "ELEMENT_SET_NO": 999, "REV_AT_EPOCH": 88170, "BSTAR": 0.00010353975, "MEAN_MOTION_DOT": 2.73e-06, "MEAN_MOTION_DDOT": 0}, "tle": {"line1": "1 33760U 93036H   25349.90734491  .00000273  00000+0  10354-3 0  9997", "line2": "2 33760  74.0322 275.6430 0019997  13.2014  50.8524 14.35674907881706"}}, "geometry": {"type": "Point", "coordinates": [-83.10099384661602, 7.837910722819401]}}, {"type": "Feature", "properties": {"norad_id": 33761, "name": "COSMOS 2251 DEB", "group": "cosmos-2251-debris", "lat": 27.859471771289147, "lon": -106.02583412450161, "alt_km": 741.3179540256524, "timestamp": "2025-12-16T10:53:45.863463+00:00", "meta": {"OBJECT_NAME": "COSMOS 2251 DEB", "OBJECT_ID": "1993-036J", "EPOCH": "2025-12-15T18:24:05.922144", "MEAN_MOTION": 14.42555133, "ECCENTRICITY": 0.00231343, "INCLINATION": 74.0369, "RA_OF_ASC_NODE": 246.5468, "ARG_OF_PERICENTER": 326.37, "MEAN_ANOMALY": 94.8942, "EPHEMERIS_TYPE": 0, "CLASSIFICATION_TYPE": "U", "NORAD_CAT_ID": 33761, "ELEMENT_SET_NO": 999, "REV_AT_EPOCH": 88278, "BSTAR": 0.00034112724, "MEAN_MOTION_DOT": 1.109e-05, "MEAN_MOTION_DDOT": 0}, "tle": {"line1": "1 33761U 93036J   25349.76673521  .00001109  00000+0  34113-3 0  9996", "line2": "2 33761  74.0369 246.5468 0023134 326.3700  94.8942 14.42555133882782"}}, "geometry": {"type": "Point", "coordinates": [-106.02583412450161, 27.859471771289147]}}, {"type": "Feature", "properties": {"norad_id": 33762, "name": "COSMOS 2251 DEB", "group": "cosmos-2251-debris", "lat": -71.63821489323519, "lon": -116.3157538696701, "alt_km": 785.4134374113373, "timestamp": "2025-12-16T10:53:45.863474+00:00", "meta": {"OBJECT_NAME": "COSMOS 2251 DEB", "OBJECT_ID": "1993-036K", "EPOCH": "2025-12-15T22:08:07.233216", "MEAN_MOTION": 14.33664831, "ECCENTRICITY": 0.00151333, "INCLINATION": 74.0418, "RA_OF_ASC_NODE": 304.2079, "ARG_OF_PERICENTER": 4.8961, "MEAN_ANOMALY": 51.3924, "EPHEMERIS_TYPE": 0, "CLASSIFICATION_TYPE": "U", "NORAD_CAT_ID": 33762, "ELEMENT_SET_NO": 999, "REV_AT_EPOCH": 88093, "BSTAR": 5.2785591e-05, "MEAN_MOTION_DOT": 1.2e-06, "MEAN_MOTION_DDOT": 0}, "tle": {"line1": "1 33762U 93036K   25349.92230594  .00000120  00000+0  52786-4 0  9993", "line2": "2 33762  74.0418 304.2079 0015133   4.8961  51.3924 14.33664831880934"}}, "geometry": {"type": "Point", "coordinates": [-116.3157538696701, -71.63821489323519]}}, {"type": "Feature", "properties": {"norad_id": 33764, "name": "COSMOS 2251 DEB", "group": "cosmos-2251-debris", "lat": 40.8393082095116, "lon": 71.4712278583198, "alt_km": 757.5806374810927, "timestamp": "2025-12-16T10:53:45.863485+00:00", "meta": {"OBJECT_NAME": "COSMOS 2251 DEB", "OBJECT_ID": "1993-036M", "EPOCH": "2025-12-15T22:57:46.429632", "MEAN_MOTION": 14.39517461, "ECCENTRICITY": 0.00237969, "INCLINATION": 74.0336, "RA_OF_ASC_NODE": 266.7167, "ARG_OF_PERICENTER": 231.8947, "MEAN_ANOMALY": 209.7746, "EPHEMERIS_TYPE": 0, "CLASSIFICATION_TYPE": "U", "NORAD_CAT_ID": 33764, "ELEMENT_SET_NO": 999, "REV_AT_EPOCH": 88203, "BSTAR": 0.00030917491, "MEAN_MOTION_DOT": 9.41e-06, "MEAN_MOTION_DDOT": 0}, "tle": {"line1": "1 33764U 93036M   25349.95678738  .00000941  00000+0  30917-3 0  9996", "line2": "2 33764  74.0336 266.7167 0023796 231.8947 209.7746 14.39517461882031"}}, "geometry": {"type": "Point", "coordinates": [71.4712278583198, 40.8393082095116]}}, {"type": "Feature", "properties": {"norad_id": 33765, "name": "COSMOS 2251 DEB", "group": "cosmos-2251-debris", "lat": -8.403523596721318, "lon": -12.146538274717132, "alt_km": 522.371995448133, "timestamp": "2025-12-16T10:53:45.863495+00:00", "meta": {"OBJECT_NAME": "COSMOS 2251 DEB", "OBJECT_ID": "1993-036N", "EPOCH": "2025-12-15T21:52:46.854624", "MEAN_MOTION": 15.1018723, "ECCENTRICITY": 0.00650224, "INCLINATION": 74.0077, "RA_OF_ASC_NODE": 166.5465, "ARG_OF_PERICENTER": 258.1458, "MEAN_ANOMALY": 223.8321, "EPHEMERIS_TYPE": 0, "CLASSIFICATION_TYPE": "U", "NORAD_CAT_ID": 33765, "ELEMENT_SET_NO": 999, "REV_AT_EPOCH": 89666, "BSTAR": 0.0013909806, "MEAN_MOTION_DOT": 0.00023927, "MEAN_MOTION_DDOT": 0}, "tle": {"line1": "1 33765U 93036N   25349.91165341  .00023927  00000+0  13910-2 0  9996", "line2": "2 33765  74.0077 166.5465 0065022 258.1458 223.8321 15.10187230896666"}}, "geometry": {"type": "Point", "coordinates": [-12.146538274717132, -8.403523596721318]}}, {"type": "Feature", "properties": {"norad_id": 33766, "name": "COSMOS 2251 DEB", "group": "cosmos-2251-debris", "lat": 58.19498370126647, "lon": -78.96143773987923, "alt_km": 807.9188669693312, "timestamp": "2025-12-16T10:53:45.863506+00:00", "meta": {"OBJECT_NAME": "COSMOS 2251 DEB", "OBJECT_ID": "1993-036P", "EPOCH": "2025-12-15T19:17:23.575776", "MEAN_MOTION": 14.34942719, "ECCENTRICITY": 0.00642916, "INCLINATION": 74.1854, "RA_OF_ASC_NODE": 129.415, "ARG_OF_PERICENTER": 331.9526, "MEAN_ANOMALY": 27.8168, "EPHEMERIS_TYPE": 0, "CLASSIFICATION_TYPE": "U", "NORAD_CAT_ID": 33766, "ELEMENT_SET_NO": 999, "REV_AT_EPOCH": 87789, "BSTAR": 0.0004849731, "MEAN_MOTION_DOT": 1.387e-05, "MEAN_MOTION_DDOT": 0}, "tle": {"line1": "1 33766U 93036P   25349.80374509  .00001387  00000+0  48497-3 0  9998", "line2": "2 33766  74.1854 129.4150 0064291 331.9526  27.8168 14.34942719877894"}}, "geometry": {"type": "Point", "coordinates": [-78.96143773987923, 58.19498370126647]}}, {"type": "Feature", "properties": {"norad_id": 33768, "name": "COSMOS 2251 DEB", "group": "cosmos-2251-debris", "lat": 66.36788752481011, "lon": -6.880327919306185, "alt_km": 1057.0063374916608, "timestamp": "2025-12-16T10:53:45.863517+00:00", "meta": {"OBJECT_NAME": "COSMOS 2251 DEB", "OBJECT_ID": "1993-036R", "EPOCH": "2025-12-15T22:30:56.115072", "MEAN_MOTION": 13.58457539, "ECCENTRICITY": 0.03664907, "INCLINATION": 74.0675, "RA_OF_ASC_NODE": 214.706, "ARG_OF_PERICENTER": 11.7522, "MEAN_ANOMALY": 89.9037, "EPHEMERIS_TYPE": 0, "CLASSIFICATION_TYPE": "U", "NORAD_CAT_ID": 33768, "ELEMENT_SET_NO": 999, "REV_AT_EPOCH": 83339, "BSTAR": 0.00031625137, "MEAN_MOTION_DOT": 3.36e-06, "MEAN_MOTION_DDOT": 0}, "tle": {"line1": "1 33768U 93036R   25349.93814948  .00000336  00000+0  31625-3 0  9998", "line2": "2 33768  74.0675 214.7060 0366490  11.7522  89.9037 13.58457539833396"}}, "geometry": {"type": "Point", "coordinates": [-6.880327919306185, 66.36788752481011]}}]}